{
  "type": "FeatureCollection",
  "metadata": {
    "title": "Protótipo — Rede de apoio Nova Mulher",
    "note": "Coordenadas aproximadas baseadas em CEP/logradouro para validação visual. Validar números exatos na etapa final."
  },
  "features": [
    {
      "type": "Feature",
      "properties": {
        "kind": "ong",
        "name": "ONG Nova Mulher",
        "category": "apoio_mulher",
        "address": "R. Adolfo Kurt Boehm, 43 - Cachoeirinha, São Paulo - SP, 02882-050",
        "hours": "Segunda a sexta, 09h–17h",
        "contact": "(11) 3859-3411 | WhatsApp: (11) 96190-2074",
        "description": "Ponto central do projeto. Acolhimento psicossocial, orientação jurídica, acompanhamento de casos e ações de fortalecimento e autonomia."
      },
      "geometry": {
        "type": "Point",
        "coordinates": [
          -46.668313273753355,
          -23.473027172449523
        ]
      }
    },
    {
      "type": "Feature",
      "properties": {
        "kind": "service",
        "name": "Centro de Referência da Mulher – Casa Brasilândia",
        "category": "apoio_mulher",
        "address": "R. Sílvio Bueno Peruche, 538 - Jardim Ondina, São Paulo - SP, 02871-050",
        "hours": "Segunda a sexta, horário comercial",
        "contact": "(11) 2476-0170",
        "description": "Acolhimento e orientação para mulheres, com encaminhamentos para a rede de proteção."
      },
      "geometry": {
        "type": "Point",
        "coordinates": [
          -46.67831737545486,
          -23.46320800330788
        ]
      }
    },
    {
      "type": "Feature",
      "properties": {
        "kind": "service",
        "name": "72º Distrito Policial – Vila Penteado",
        "category": "seguranca",
        "address": "R. Sílvio Bueno Peruche, 500 - Jardim Ondina, São Paulo - SP, 02871-050",
        "hours": "24 horas",
        "contact": "(11) 3851-4488",
        "description": "Atendimento policial e registro de ocorrências."
      },
      "geometry": {
        "type": "Point",
        "coordinates": [
          -46.67875725772461,
          -23.463375312648047
        ]
      }
    },
    {
      "type": "Feature",
      "properties": {
        "kind": "service",
        "name": "UBS Dr. Augusto Leopoldo Ayrosa Galvão",
        "category": "saude",
        "address": "R. Joaquina Maria dos Santos, 198 - São Paulo - SP, 02860-110",
        "hours": "Segunda a sexta, 07h–19h",
        "contact": "(11) 3851-8235",
        "description": "Atenção básica em saúde e possível porta de entrada para acompanhamento e encaminhamentos."
      },
      "geometry": {
        "type": "Point",
        "coordinates": [
          -46.67393051311901,
          -23.46925411637365
        ]
      }
    },
    {
      "type": "Feature",
      "properties": {
        "kind": "service",
        "name": "UPA III – Jardim Peri",
        "category": "saude",
        "address": "R. Afonso Lopes Vieira, 35 - Vila Dionísia, São Paulo - SP, 02671-100",
        "hours": "24 horas",
        "contact": "(11) 5237-4896",
        "description": "Atendimento de urgência e emergência, incluindo suporte médico e serviço social."
      },
      "geometry": {
        "type": "Point",
        "coordinates": [
          -46.66814596766436,
          -23.466788218380778
        ]
      }
    },
    {
      "type": "Feature",
      "properties": {
        "kind": "service",
        "name": "Base Polícia Militar",
        "category": "seguranca",
        "address": "Praça Manuel da Costa Negreiros, 66 - Vila Nova Cachoeirinha, São Paulo - SP, 02610-120",
        "hours": "24 horas",
        "contact": "Emergência: 190",
        "description": "Ponto de apoio policial para situações de risco e emergência."
      },
      "geometry": {
        "type": "Point",
        "coordinates": [
          -46.66738441283655,
          -23.472994200977595
        ]
      }
    },
    {
      "type": "Feature",
      "properties": {
        "kind": "service",
        "name": "CAPS AD II Cachoeirinha",
        "category": "saude_mental",
        "address": "R. Desembargador Rodrigues Sette, 111 - Jardim Peri, São Paulo - SP, 02634-070",
        "hours": "Confirmar com a unidade",
        "contact": "(11) 2232-4430",
        "description": "Atenção psicossocial especializada relacionada ao uso de álcool e outras drogas."
      },
      "geometry": {
        "type": "Point",
        "coordinates": [
          -46.65043339892093,
          -23.457232563018202
        ]
      }
    },
    {
      "type": "Feature",
      "properties": {
        "kind": "service",
        "name": "Casa da Mulher",
        "category": "apoio_mulher",
        "address": "Av. Dep. Emílio Carlos, 3460 - Limão, São Paulo - SP, 02721-200",
        "hours": "Segunda a sexta, 08h–18h",
        "contact": "(11) 98880-3551",
        "description": "Oferece atendimento especializado a mulheres em situação de violência ou vulnerabilidade social, com acompanhamento psicológico, social e orientação jurídica."
      },
      "geometry": {
        "type": "Point",
        "coordinates": [
          -46.67138738989277,
          -23.477884060632118
        ]
      }
    },
    {
      "type": "Feature",
      "properties": {
        "kind": "service",
        "name": "Associação Fala Mulher",
        "category": "apoio_mulher",
        "address": "R. Ferreira de Almeida, 23 - Casa Verde, São Paulo - SP",
        "hours": "Segunda a sexta, 09h–17h",
        "contact": "(11) 3858-8279",
        "description": "Acolhimento de mulheres em situação de violência, acompanhamento psicossocial, orientação e articulação com a rede."
      },
      "geometry": {
        "type": "Point",
        "coordinates": [
          -46.666929348927894,
          -23.508476003293445
        ]
      }
    },
    {
      "type": "Feature",
      "properties": {
        "kind": "service",
        "name": "4ª Delegacia de Defesa da Mulher – Norte",
        "category": "seguranca",
        "address": "Av. Itaberaba, 731 - Freguesia do Ó, São Paulo - SP, 02734-000",
        "hours": "24 horas",
        "contact": "(11) 3976-2908",
        "description": "Delegacia especializada no atendimento a mulheres, com registro e investigação de ocorrências e encaminhamento para medidas de proteção."
      },
      "geometry": {
        "type": "Point",
        "coordinates": [
          -46.69769115141728,
          -23.49478561149186
        ]
      }
    },
    {
      "type": "Feature",
      "properties": {
        "kind": "service",
        "name": "9ª Delegacia de Defesa da Mulher – Zona Oeste",
        "category": "seguranca",
        "address": "Av. Menotti Laudisio, 286 - Pirituba, São Paulo - SP",
        "hours": "Segunda a sexta, 09h–18h",
        "contact": "(11) 3974-8890",
        "description": "Atendimento policial especializado a mulheres em situação de violência."
      },
      "geometry": {
        "type": "Point",
        "coordinates": [
          -46.725147965532,
          -23.482008046508227
        ]
      }
    },
    {
      "type": "Feature",
      "properties": {
        "kind": "service",
        "name": "CREAS Casa Verde",
        "category": "assistencia",
        "address": "R. Crisólia, 53 - Jardim Primavera, São Paulo - SP, 02756-000",
        "hours": "Segunda a sexta, 08h–18h",
        "contact": "(11) 3983-2783",
        "description": "Atendimento especializado a pessoas e famílias em situação de violação de direitos, com acompanhamento e encaminhamentos para a rede socioassistencial."
      },
      "geometry": {
        "type": "Point",
        "coordinates": [
          -46.67629206111975,
          -23.48752440557527
        ]
      }
    },
    {
      "type": "Feature",
      "properties": {
        "kind": "service",
        "name": "CRAS Cachoeirinha",
        "category": "assistencia",
        "address": "Av. Imirim, 4328 - Imirim, São Paulo - SP, 02464-700",
        "hours": "Segunda a sexta, 08h–18h",
        "contact": "(11) 93585-2344",
        "description": "Porta de entrada da proteção social básica, com orientação, acompanhamento e encaminhamento de famílias para serviços da rede socioassistencial."
      },
      "geometry": {
        "type": "Point",
        "coordinates": [
          -46.66463845179984,
          -23.475133056784195
        ]
      }
    },
    {
      "type": "Feature",
      "properties": {
        "kind": "service",
        "name": "Hospital e Maternidade Escola Dr. Mário de Moraes Altenfelder Silva – Hospital Cachoeirinha",
        "category": "saude",
        "address": "Av. Dep. Emílio Carlos, 3100 - Limão, São Paulo - SP, 02720-200",
        "hours": "24 horas",
        "contact": "(11) 98971-3602",
        "description": "Serviço hospitalar da Zona Norte e referência para atendimento e orientação em situações de violência sexual."
      },
      "geometry": {
        "type": "Point",
        "coordinates": [
          -46.6711604545582,
          -23.480098452776456
        ]
      }
    },
    {
      "type": "Feature",
      "properties": {
        "kind": "service",
        "name": "Defensoria Pública do Estado de São Paulo – Unidade Regional",
        "category": "seguranca",
        "address": "R. Mateus de Leão, 46 - Vila Albertina / Freguesia do Ó, São Paulo - SP",
        "hours": "Segunda a sexta, 08h–17h",
        "contact": "0800 773 4340",
        "description": "Orientação e assistência jurídica gratuita para pessoas que atendam aos critérios da Defensoria Pública, incluindo demandas relacionadas à proteção de mulheres."
      },
      "geometry": {
        "type": "Point",
        "coordinates": [
          -46.69257285333043,
          -23.49655713688537
        ]
      }
    }
  ]
}